{
  "type": "FeatureCollection",
  "features": [
    {
      "type": "Feature",
      "properties": {
        "norad_id": 66174,
        "name": "HTV-X1",
        "group": "stations",
        "lat": 36.43499573990047,
        "lon": 152.70477276629617,
        "alt_km": 414.7117359483045,
        "timestamp": "2025-12-17T21:39:44.513139+00:00",
        "meta_object_name": "HTV-X1",
        "meta_object_id": "2025-241A",
        "meta_epoch": "2025-12-17T13:42:43.375968",
        "meta_mean_motion": 15.49636687,
        "meta_eccentricity": 0.00031828,
        "meta_inclination": 51.631,
        "meta_ra_of_asc_node": 118.5527,
        "meta_arg_of_pericenter": 262.6214,
        "meta_mean_anomaly": 97.4413,
        "meta_ephemeris_type": 0,
        "meta_classification_type": "U",
        "meta_norad_cat_id": 66174,
        "meta_element_set_no": 999,
        "meta_rev_at_epoch": 51,
        "meta_bstar": 0.00014273627,
        "meta_mean_motion_dot": 7.597e-05,
        "meta_mean_motion_ddot": 0,
        "tle_line1": "1 66174U 25241A   25351.57133537  .00007597  00000+0  14274-3 0  9996",
        "tle_line2": "2 66174  51.6310 118.5527 0003182 262.6214  97.4413 15.49636687   517"
      },
      "geometry": {
        "type": "Point",
        "coordinates": [
          152.70477276629617,
          36.43499573990047
        ]
      }
    },
    {
      "type": "Feature",
      "properties": {
        "norad_id": 66515,
        "name": "SZ-21 MODULE",
        "group": "stations",
        "lat": -18.941593844447176,
        "lon": -38.316505222182194,
        "alt_km": 378.3925709761843,
        "timestamp": "2025-12-17T21:39:44.513148+00:00",
        "meta_object_name": "SZ-21 MODULE",
        "meta_object_id": "2025-246C",
        "meta_epoch": "2025-12-17T06:26:59.040960",
        "meta_mean_motion": 15.62718015,
        "meta_eccentricity": 0.00059901,
        "meta_inclination": 41.4771,
        "meta_ra_of_asc_node": 348.414,
        "meta_arg_of_pericenter": 284.3104,
        "meta_mean_anomaly": 75.707,
        "meta_ephemeris_type": 0,
        "meta_classification_type": "U",
        "meta_norad_cat_id": 66515,
        "meta_element_set_no": 999,
        "meta_rev_at_epoch": 515,
        "meta_bstar": 0.00025031156,
        "meta_mean_motion_dot": 0.00022864,
        "meta_mean_motion_ddot": 0,
        "tle_line1": "1 66515U 25246C   25351.26873890  .00022864  00000+0  25031-3 0  9996",
        "tle_line2": "2 66515  41.4771 348.4140 0005990 284.3104  75.7070 15.62718015  5151"
      },
      "geometry": {
        "type": "Point",
        "coordinates": [
          -38.316505222182194,
          -18.941593844447176
        ]
      }
    },
    {
      "type": "Feature",
      "properties": {
        "norad_id": 66645,
        "name": "SHENZHOU-22",
        "group": "stations",
        "lat": 0.04691262266016422,
        "lon": -14.588378160370448,
        "alt_km": 387.5969161910407,
        "timestamp": "2025-12-17T21:39:44.513157+00:00",
        "meta_object_name": "SHENZHOU-22",
        "meta_object_id": "2025-272A",
        "meta_epoch": "2025-12-17T10:54:09.513792",
        "meta_mean_motion": 15.59380496,
        "meta_eccentricity": 0.00077365,
        "meta_inclination": 41.4681,
        "meta_ra_of_asc_node": 348.0821,
        "meta_arg_of_pericenter": 71.5092,
        "meta_mean_anomaly": 288.6587,
        "meta_ephemeris_type": 0,
        "meta_classification_type": "U",
        "meta_norad_cat_id": 66645,
        "meta_element_set_no": 999,
        "meta_rev_at_epoch": 26357,
        "meta_bstar": 0.00026147589,
        "meta_mean_motion_dot": 0.00020985,
        "meta_mean_motion_ddot": 0,
        "tle_line1": "1 66645U 25272A   25351.45427678  .00020985  00000+0  26148-3 0  9991",
        "tle_line2": "2 66645  41.4681 348.0821 0007736  71.5092 288.6587 15.59380496263573"
      },
      "geometry": {
        "type": "Point",
        "coordinates": [
          -14.588378160370448,
          0.04691262266016422
        ]
      }
    },
    {
      "type": "Feature",
      "properties": {
        "norad_id": 66664,
        "name": "SOYUZ-MS 28",
        "group": "stations",
        "lat": 36.43499693207653,
        "lon": 152.70477456366842,
        "alt_km": 414.7117357988145,
        "timestamp": "2025-12-17T21:39:44.513168+00:00",
        "meta_object_name": "SOYUZ-MS 28",
        "meta_object_id": "2025-275A",
        "meta_epoch": "2025-12-17T13:42:43.375968",
        "meta_mean_motion": 15.49636687,
        "meta_eccentricity": 0.00031828,
        "meta_inclination": 51.631,
        "meta_ra_of_asc_node": 118.5527,
        "meta_arg_of_pericenter": 262.6214,
        "meta_mean_anomaly": 97.4413,
        "meta_ephemeris_type": 0,
        "meta_classification_type": "U",
        "meta_norad_cat_id": 66664,
        "meta_element_set_no": 999,
        "meta_rev_at_epoch": 128,
        "meta_bstar": 0.00014273627,
        "meta_mean_motion_dot": 7.597e-05,
        "meta_mean_motion_ddot": 0,
        "tle_line1": "1 66664U 25275A   25351.57133537  .00007597  00000+0  14274-3 0  9997",
        "tle_line2": "2 66664  51.6310 118.5527 0003182 262.6214  97.4413 15.49636687  1286"
      },
      "geometry": {
        "type": "Point",
        "coordinates": [
          152.70477456366842,
          36.43499693207653
        ]
      }
    },
    {
      "type": "Feature",
      "properties": {
        "norad_id": 66906,
        "name": "1998-067XS",
        "group": "stations",
        "lat": 50.618774511204165,
        "lon": -138.02722445011918,
        "alt_km": 408.5834468986495,
        "timestamp": "2025-12-17T21:39:44.513177+00:00",
        "meta_object_name": "1998-067XS",
        "meta_object_id": "1998-067XS",
        "meta_epoch": "2025-12-17T13:30:08.269344",
        "meta_mean_motion": 15.50826829,
        "meta_eccentricity": 0.00031669,
        "meta_inclination": 51.631,
        "meta_ra_of_asc_node": 118.4957,
        "meta_arg_of_pericenter": 225.2923,
        "meta_mean_anomaly": 134.7808,
        "meta_ephemeris_type": 0,
        "meta_classification_type": "U",
        "meta_norad_cat_id": 66906,
        "meta_element_set_no": 999,
        "meta_rev_at_epoch": 236,
        "meta_bstar": 0.00042205849,
        "meta_mean_motion_dot": 0.00024423,
        "meta_mean_motion_ddot": 0,
        "tle_line1": "1 66906U 98067XS  25351.56259571  .00024423  00000+0  42206-3 0  9994",
        "tle_line2": "2 66906  51.6310 118.4957 0003166 225.2923 134.7808 15.50826829  2369"
      },
      "geometry": {
        "type": "Point",
        "coordinates": [
          -138.02722445011918,
          50.618774511204165
        ]
      }
    },
    {
      "type": "Feature",
      "properties": {
        "norad_id": 66907,
        "name": "1998-067XT",
        "group": "stations",
        "lat": 33.80324262650167,
        "lon": -95.30223407747216,
        "alt_km": 407.6865444721143,
        "timestamp": "2025-12-17T21:39:44.513186+00:00",
        "meta_object_name": "1998-067XT",
        "meta_object_id": "1998-067XT",
        "meta_epoch": "2025-12-17T14:54:10.641600",
        "meta_mean_motion": 15.52051532,
        "meta_eccentricity": 0.00040131,
        "meta_inclination": 51.6305,
        "meta_ra_of_asc_node": 118.1347,
        "meta_arg_of_pericenter": 256.0378,
        "meta_mean_anomaly": 104.0166,
        "meta_ephemeris_type": 0,
        "meta_classification_type": "U",
        "meta_norad_cat_id": 66907,
        "meta_element_set_no": 999,
        "meta_rev_at_epoch": 237,
        "meta_bstar": 0.0008696116,
        "meta_mean_motion_dot": 0.00053299,
        "meta_mean_motion_ddot": 0,
        "tle_line1": "1 66907U 98067XT  25351.62095650  .00053299  00000+0  86961-3 0  9997",
        "tle_line2": "2 66907  51.6305 118.1347 0004013 256.0378 104.0166 15.52051532  2373"
      },
      "geometry": {
        "type": "Point",
        "coordinates": [
          -95.30223407747216,
          33.80324262650167
        ]
      }
    },
    {
      "type": "Feature",
      "properties": {
        "norad_id": 66908,
        "name": "1998-067XU",
        "group": "stations",
        "lat": 31.4143441493072,
        "lon": -92.21345963570762,
        "alt_km": 407.6413755362082,
        "timestamp": "2025-12-17T21:39:44.513196+00:00",
        "meta_object_name": "1998-067XU",
        "meta_object_id": "1998-067XU",
        "meta_epoch": "2025-12-17T13:20:34.724544",
        "meta_mean_motion": 15.52141962,
        "meta_eccentricity": 0.0004125,
        "meta_inclination": 51.6303,
        "meta_ra_of_asc_node": 118.4505,
        "meta_arg_of_pericenter": 254.9068,
        "meta_mean_anomaly": 105.1466,
        "meta_ephemeris_type": 0,
        "meta_classification_type": "U",
        "meta_norad_cat_id": 66908,
        "meta_element_set_no": 999,
        "meta_rev_at_epoch": 236,
        "meta_bstar": 0.00086664567,
        "meta_mean_motion_dot": 0.0005329,
        "meta_mean_motion_ddot": 0,
        "tle_line1": "1 66908U 98067XU  25351.55595746  .00053290  00000+0  86665-3 0  9993",
        "tle_line2": "2 66908  51.6303 118.4505 0004125 254.9068 105.1466 15.52141962  2369"
      },
      "geometry": {
        "type": "Point",
        "coordinates": [
          -92.21345963570762,
          31.4143441493072
        ]
      }
    }
  ]
}